GAOFEN-10R              
1 44622U 19066A   24332.08299122  .00004352  00000+0  55369-3 0  9991
2 44622  97.9820 273.3296 0004214 145.4255 214.7232 14.82104350278347
CARTOSAT-3              
1 44804U 19081A   24332.12862119  .00010122  00000+0  48302-3 0  9998
2 44804  97.5120  29.2426 0014686 328.7707  31.2653 15.19173066277320
GAOFEN-12 01            
1 44819U 19082A   24332.16684107  .00001432  00000+0  19181-3 0  9995
2 44819  97.8198 342.2995 0001140 171.5168 188.6064 14.80921545270190
CSG-1                   
1 44873U 19092A   24332.09795210  .00001810  00000+0  23395-3 0  9998
2 44873  97.8861 152.9030 0001586  85.4143 274.7251 14.82143943267475
NEMO-HD                 
1 46277U 20061F   24332.09939636  .00015136  00000+0  50937-3 0  9996
2 46277  97.2770  31.2898 0000309  25.9368 334.1889 15.30874803234820
SENTINEL-6              
1 46984U 20086A   24332.09804837 -.00000054  00000+0  30079-4 0  9992
2 46984  66.0411 232.9024 0007762 270.5323  89.4802 12.80930946187815
GAOFEN-12 02            
1 48079U 21026A   24332.16136812  .00001569  00000+0  21016-3 0  9994
2 48079  97.9626 322.5463 0003189  15.7565 344.3746 14.80838875197868
PLEIADES NEO 3          
1 48268U 21034A   24332.18301560  .00003650  00000+0  47008-3 0  9991
2 48268  97.8945  44.0851 0000732  95.5534 264.5762 14.81679104193698
PLEIADES NEO 4          
1 49070U 21073E   24332.08170757  .00003195  00000+0  41248-3 0  9991
2 49070  97.8963  43.9833 0000877  95.4949 264.6364 14.81671258177397
LANDSAT 9               
1 49260U 21088A   24332.12419233  .00001274  00000+0  29285-3 0  9991
2 49260  98.2156  39.6349 0001164  82.6948 277.4383 14.57109585168416
CSG-2                   
1 51444U 22008A   24332.13163693  .00001303  00000+0  17016-3 0  9990
2 51444  97.8862 152.9264 0001416  90.0940 270.0435 14.82177889152591
GAOFEN-12 03            
1 52912U 22069A   24331.24367605  .00005641  00000+0  72619-3 0  9997
2 52912  97.8908 219.8875 0009415   9.1432 350.9950 14.81451956130593
SWOT                    
1 54754U 22173A   24331.85596810  .00000218  00000+0  14969-3 0  9997
2 54754  77.6108  81.1497 0000394 292.8359  67.2751 14.00170894 99752
GAOFEN-12 04            
1 57654U 23123A   24331.21030391  .00004506  00000+0  58310-3 0  9994
2 57654  97.9095 246.4214 0001133  49.9512 310.1799 14.81371874 68603
PARS 1                  
1 59065U 24039Q   24332.09851860  .00016697  00000+0  56126-3 0  9995
2 59065  97.4153 293.0259 0013050   3.4055 356.7273 15.30814503 41459
RESURS-P 4              
1 59371U 24061A   24332.12112888  .00009766  00000+0  28146-3 0  9994
2 59371  97.2067 281.0599 0001661  82.3346 277.8087 15.35925407 36900
LEGION 1                
1 59625U 24081A   24331.88500228  .00012665  00000+0  63512-3 0  9997
2 59625  97.5607  42.7195 0008442 186.4258 173.6868 15.17444598 31543
LEGION 2                
1 59626U 24081B   24331.85106951  .00011341  00000+0  56977-3 0  9997
2 59626  97.5607  42.7637 0005594 233.9824 126.0891 15.17428196 31541
ALOS-4 (DAICHI-4)       
1 60182U 24123A   24332.12469767  .00005540  00000+0  74814-3 0  9995
2 60182  97.9224  66.4359 0001388 102.8599 257.2768 14.79473267 22033
LEGION 3                
1 60452U 24146A   24331.78889385  .00031905  00000+0  77494-3 0  9994
2 60452  44.9990 194.3923 0028872 209.0429 150.8853 15.40075369 15903
LEGION 4                
1 60453U 24146B   24332.16222026  .00001205  00000+0  29458-3 0  9998
2 60453  45.0391 258.3984 0004717 312.4972  47.5486 14.57784043 15113
SENTINEL-2C             
1 60989U 24157A   24331.76025540  .00000439  00000+0  18396-3 0  9998
2 60989  98.5713  43.7990 0001049  94.7655 265.3648 14.30824761 11843
SARSAT 7 (NOAA 15)      
1 25338U 98030A   24332.08278451  .00000487  00000+0  21859-3 0  9996
2 25338  98.5550 355.7233 0009819 203.0112 157.0630 14.26807030380665
GPS BIIR-08             
1 27663U 03005A   24331.73505757 -.00000017  00000+0  00000+0 0  9991
2 27663  55.0413 237.5294 0141135  48.4522 321.9083  2.00565687159938
GPS BIIR-11             
1 28190U 04009A   24331.75708369 -.00000068  00000+0  00000+0 0  9994
2 28190  55.3152 298.5359 0098572 155.2409  22.8683  2.00573347151569
GPS BIIR-13             
1 28474U 04045A   24331.94282394 -.00000079  00000+0  00000+0 0  9997
2 28474  55.3903 347.6923 0166447 297.1631  62.4356  2.00563074147053
SARSAT 10 (NOAA 18)     
1 28654U 05018A   24332.17759619  .00000507  00000+0  29307-3 0  9993
2 28654  98.8627  47.7032 0013499 324.1049  35.9216 14.13432847  6288
GPS BIIR-14M            
1 28874U 05038A   24331.98050346 -.00000068  00000+0  00000+0 0  9996
2 28874  55.3604 295.9932 0136993 287.1926  78.8842  2.00574524140459
METEOSAT-9 (MSG-2)      
1 28912U 05049B   24330.89486612  .00000142  00000+0  00000+0 0  9991
2 28912   8.0615  59.4719 0001853 203.3556 170.3952  1.00276138 69381
GOES 13                 
1 29155U 06018A   24331.83426118 -.00000182  00000+0  00000+0 0  9993
2 29155   3.0508  83.3129 0063756 256.7232 200.1510  0.98834148 37644
GPS BIIR-16M            
1 29601U 06052A   24331.03227173 -.00000024  00000+0  00000+0 0  9994
2 29601  55.0771 236.5463 0086436  83.3591 277.6679  2.00549950132015
GPS BIIR-17M            
1 32260U 07047A   24331.34216990  .00000020  00000+0  00000+0 0  9998
2 32260  53.7011 103.5326 0159501  78.8710 282.8978  2.00556750125422
GPS BIIR-18M            
1 32384U 07062A   24331.37730355 -.00000068  00000+0  00000+0 0  9994
2 32384  55.5040 296.9044 0027723 157.2685 356.3197  2.00555945124129
SARSAT 12 (NOAA 19)     
1 33591U 09005A   24332.08207200  .00000475  00000+0  27808-3 0  9991
2 33591  99.0270  29.4504 0013714 189.2197 170.8725 14.13210877814633
GOES 14                 
1 35491U 09033A   24331.61993944 -.00000045  00000+0  00000+0 0  9993
2 35491   0.2075  91.7748 0003107 118.3374 330.5717  1.00273184   903
GOES 15                 
1 36411U 10008A   24331.81210663  .00000058  00000+0  00000+0 0  9995
2 36411   0.1758 272.9186 0006450 333.5668 173.7103  1.00268593 53950
GSAT0101 (GALILEO-PFM)  
1 37846U 11060A   24329.86091542 -.00000085  00000+0  00000+0 0  9993
2 37846  57.1204 357.1880 0002225 306.2715  53.7601  1.70475941 81544
GSAT0102 (GALILEO-FM2)  
1 37847U 11060B   24331.53938316 -.00000079  00000+0  00000+0 0  9993
2 37847  57.1212 357.1427 0004248 301.7491  53.7825  1.70475463 81568
LUCH 5A                 
1 37951U 11074B   24332.11887330 -.00000026  00000+0  00000+0 0  9990
2 37951   7.3034  82.3955 0004664 155.8892  38.0544  1.00269358 47508
METEOSAT-10 (MSG-3)     
1 38552U 12035B   24332.08581328  .00000019  00000+0  00000+0 0  9991
2 38552   3.3380  61.7788 0001487 238.0946 157.7754  1.00277466 45537
SARSAT 13 (METOP-B)     
1 38771U 12049A   24332.12070577  .00000413  00000+0  20778-3 0  9999
2 38771  98.6074  25.5182 0000964  78.9817 281.1470 14.21594731632690
GPS BIIF-3              
1 38833U 12053A   24330.94067770  .00000099  00000+0  00000+0 0  9994
2 38833  53.5222 166.8587 0161225  58.7657 302.8737  2.00560924 88040
GSAT0103 (GALILEO-FM3)  
1 38857U 12055A   24331.07347724  .00000054  00000+0  00000+0 0  9998
2 38857  55.4840 117.1550 0002357 249.7486 110.2083  1.70473572 75324
GPS BIIF-4              
1 39166U 13023A   24331.79979637 -.00000068  00000+0  00000+0 0  9997
2 39166  54.9741 292.0169 0127498  45.1123 315.9026  2.00562389 84501
INSAT-3D                
1 39216U 13038B   24331.75049380 -.00000318  00000+0  00000+0 0  9996
2 39216   0.4545  90.6135 0001908 167.6296 207.5791  1.00271623 41390
GPS BIIF-5              
1 39533U 14008A   24331.79624038  .00000102  00000+0  00000+0 0  9999
2 39533  53.6024 172.4457 0073038 220.3016 139.2305  2.00551576 78852
LUCH 5V                 
1 39727U 14023A   24332.10453800 -.00000245  00000+0  00000+0 0  9993
2 39727   3.7091  74.8136 0004494 195.5228 288.5257  1.00269146556824
GPS BIIF-6              
1 39741U 14026A   24332.07918091 -.00000078  00000+0  00000+0 0  9990
2 39741  56.6918 353.5547 0034864 313.5810  46.1806  2.00556888 77156
GPS BIIF-7              
1 40105U 14045A   24331.66458345  .00000039  00000+0  00000+0 0  9998
2 40105  55.0095 111.1150 0029726 117.6512 242.6353  2.00577049 74690
GSAT0201 (GALILEO 5)    
1 40128U 14050A   24331.32371736 -.00000092  00000+0  00000+0 0  9990
2 40128  49.4915 296.5342 1615445 157.5538 210.4172  1.85519707 69724
GSAT0202 (GALILEO 6)    
1 40129U 14050B   24328.34747109 -.00000083  00000+0  00000+0 0  9990
2 40129  49.5108 295.7332 1614741 158.2322 209.5122  1.85520434 69898
GPS BIIF-8              
1 40294U 14068A   24331.54392715 -.00000084  00000+0  00000+0 0  9998
2 40294  56.5584  52.9185 0054401  65.3369 295.2503  2.00570300 73801
GLONASS-K 2             
1 40315U 14075A   24331.96625814  .00000049  00000+0  00000+0 0  9995
2 40315  63.6162 210.0232 0019272 205.3312 154.6579  2.13101493 77764
GPS BIIF-9              
1 40534U 15013A   24331.67627149  .00000001  00000+0  00000+0 0  9990
2 40534  53.2905 227.6668 0094936  32.3725 328.2678  2.00555962 70447
GSAT0203 (GALILEO 7)    
1 40544U 15017A   24331.39950270 -.00000080  00000+0  00000+0 0  9996
2 40544  56.9150 357.0582 0006061 261.5535  98.4321  1.70476208 59528
GSAT0204 (GALILEO 8)    
1 40545U 15017B   24330.48097688 -.00000083  00000+0  00000+0 0  9994
2 40545  56.9215 357.0994 0005849 251.3604 108.6290  1.70475809 22553
GPS BIIF-10             
1 40730U 15033A   24331.83744698 -.00000068  00000+0  00000+0 0  9991
2 40730  54.4555 290.4083 0099629  20.6961 339.6903  2.00558750 68615
METEOSAT-11 (MSG-4)     
1 40732U 15034A   24331.80176785  .00000086  00000+0  00000+0 0  9996
2 40732   1.7822  71.4537 0001455 189.3019 103.5211  1.00277962  1526
GSAT0205 (GALILEO 9)    
1 40889U 15045A   24330.24937976 -.00000019  00000+0  00000+0 0  9992
2 40889  55.1508 237.3219 0004734  17.3728 342.6853  1.70473026 57315
